ASTROCAST-0402          
1 55109U 23001DE  26068.80661100  .00010930  00000+0  41835-3 0  9996
2 55109  97.5556 160.6821 0004209 216.6984 143.3966 15.26734153129364
STARLINK-33865          
1 64247U 25119Q   26068.04175807  .00024428  00000+0  89455-3 0  9998
2 64247  43.0008 310.4136 0001447 253.2212 106.8481 15.27570218 44049
